STARLINK-2330
1 17874C 21021Q   21326.16406711  .00004401  00000-0  29479-3 0  3263
2 17874  53.0479  58.0251 0000515  85.4366 152.2121 15.06404710    17
